STARLINK-36545          
1 67505U 26012N   26048.25002315 -.01879302  00000+0 -62796-1 0  9994
2 67505  42.9992  69.5620 0000925 296.7252 255.2540 15.33833891  5784
STARLINK-36553          
1 67506U 26012P   26048.25002315 -.01882803  00000+0 -65427-1 0  9999
2 67506  42.9995  69.5059 0001017 288.2306 286.3148 15.32611070  5784
STARLINK-36521          
1 67507U 26012Q   26048.25002315 -.01886833  00000+0 -64565-1 0  9999
2 67507  42.9998  69.4763 0000872 295.9853 290.2339 15.33103983  5785
STARLINK-36526          
1 67508U 26012R   26048.25002315 -.01886005  00000+0 -62981-1 0  9991
2 67508  42.9995  69.4365 0000949 290.3891 312.2547 15.33865886  5780
STARLINK-36541          
1 67509U 26012S   26047.94919687 -.00007534  00000+0 -17015-3 0  9997
2 67509  42.9989  72.0882 0003747 251.2048 108.8402 15.41224028  4589
STARLINK-36549          
1 67510U 26012T   26048.25002315 -.02240221  00000+0 -80676-1 0  9990
2 67510  42.9999  69.4101 0001719 255.7713 354.6579 15.31519204  5737
STARLINK-36540          
1 67511U 26012U   26047.94779171 -.00009054  00000+0 -20724-3 0  9992
2 67511  42.9989  72.0794 0003648 252.1486 107.8973 15.41045741  4585
STARLINK-36538          
1 67512U 26012V   26048.25002315  .00003656  00000+0  14236-3 0  9998
2 67512  43.0001  70.0677 0001898 286.1929  56.1928 15.27565577  5782
STARLINK-36531          
1 67513U 26012W   26048.25002315  .00005354  00000+0  20417-3 0  9994
2 67513  43.0003  69.9295 0000496 301.6110  97.3789 15.27539046  5735
STARLINK-36530          
1 67514U 26012X   26048.25002315  .00005560  00000+0  20633-3 0  9994
2 67514  43.0000  69.9229 0001044 252.0344 149.7007 15.28389951  5732
STARLINK-36543          
1 67515U 26012Y   26048.25002315  .00008654  00000+0  31600-3 0  9998
2 67515  43.0000  69.9225 0001377 265.2845 137.3586 15.28366459  5733
STARLINK-36537          
1 67516U 26012Z   26048.25002315 -.00004960  00000+0 -16661-3 0  9997
2 67516  42.9995  69.7495 0000705 275.2570 197.1857 15.28383524  5739
