CCSDS_OMM_VERS = 2.0
CREATION_DATE  = 
ORIGINATOR     = 

OBJECT_NAME    = STARLINK-36545
OBJECT_ID      = 2026-012N
CENTER_NAME    = EARTH
REF_FRAME      = TEME
TIME_SYSTEM    = UTC
MEAN_ELEMENT_THEORY = SGP/SGP4

EPOCH          = 2026-02-17T06:00:02.000160
MEAN_MOTION    = 15.33833891
ECCENTRICITY   = .00009255
INCLINATION    = 42.9992
RA_OF_ASC_NODE = 69.5620
ARG_OF_PERICENTER = 296.7252
MEAN_ANOMALY   = 255.2540

EPHEMERIS_TYPE = 0
CLASSIFICATION_TYPE = U
NORAD_CAT_ID   = 67505
ELEMENT_SET_NO = 999
REV_AT_EPOCH   = 578
BSTAR          = -.62795905E-1
MEAN_MOTION_DOT = -.1879302E-1
MEAN_MOTION_DDOT = 0

CCSDS_OMM_VERS = 2.0
CREATION_DATE  = 
ORIGINATOR     = 

OBJECT_NAME    = STARLINK-36553
OBJECT_ID      = 2026-012P
CENTER_NAME    = EARTH
REF_FRAME      = TEME
TIME_SYSTEM    = UTC
MEAN_ELEMENT_THEORY = SGP/SGP4

EPOCH          = 2026-02-17T06:00:02.000160
MEAN_MOTION    = 15.32611070
ECCENTRICITY   = .00010177
INCLINATION    = 42.9995
RA_OF_ASC_NODE = 69.5059
ARG_OF_PERICENTER = 288.2306
MEAN_ANOMALY   = 286.3148

EPHEMERIS_TYPE = 0
CLASSIFICATION_TYPE = U
NORAD_CAT_ID   = 67506
ELEMENT_SET_NO = 999
REV_AT_EPOCH   = 578
BSTAR          = -.65426649E-1
MEAN_MOTION_DOT = -.1882803E-1
MEAN_MOTION_DDOT = 0

CCSDS_OMM_VERS = 2.0
CREATION_DATE  = 
ORIGINATOR     = 

OBJECT_NAME    = STARLINK-36521
OBJECT_ID      = 2026-012Q
CENTER_NAME    = EARTH
REF_FRAME      = TEME
TIME_SYSTEM    = UTC
MEAN_ELEMENT_THEORY = SGP/SGP4

EPOCH          = 2026-02-17T06:00:02.000160
MEAN_MOTION    = 15.33103983
ECCENTRICITY   = .00008725
INCLINATION    = 42.9998
RA_OF_ASC_NODE = 69.4763
ARG_OF_PERICENTER = 295.9853
MEAN_ANOMALY   = 290.2339

EPHEMERIS_TYPE = 0
CLASSIFICATION_TYPE = U
NORAD_CAT_ID   = 67507
ELEMENT_SET_NO = 999
REV_AT_EPOCH   = 578
BSTAR          = -.64565156E-1
MEAN_MOTION_DOT = -.1886833E-1
MEAN_MOTION_DDOT = 0

CCSDS_OMM_VERS = 2.0
CREATION_DATE  = 
ORIGINATOR     = 

OBJECT_NAME    = STARLINK-36526
OBJECT_ID      = 2026-012R
CENTER_NAME    = EARTH
REF_FRAME      = TEME
TIME_SYSTEM    = UTC
MEAN_ELEMENT_THEORY = SGP/SGP4

EPOCH          = 2026-02-17T06:00:02.000160
MEAN_MOTION    = 15.33865886
ECCENTRICITY   = .00009496
INCLINATION    = 42.9995
RA_OF_ASC_NODE = 69.4365
ARG_OF_PERICENTER = 290.3891
MEAN_ANOMALY   = 312.2547

EPHEMERIS_TYPE = 0
CLASSIFICATION_TYPE = U
NORAD_CAT_ID   = 67508
ELEMENT_SET_NO = 999
REV_AT_EPOCH   = 578
BSTAR          = -.62981056E-1
MEAN_MOTION_DOT = -.1886005E-1
MEAN_MOTION_DDOT = 0

CCSDS_OMM_VERS = 2.0
CREATION_DATE  = 
ORIGINATOR     = 

OBJECT_NAME    = STARLINK-36541
OBJECT_ID      = 2026-012S
CENTER_NAME    = EARTH
REF_FRAME      = TEME
TIME_SYSTEM    = UTC
MEAN_ELEMENT_THEORY = SGP/SGP4

EPOCH          = 2026-02-16T22:46:50.609568
MEAN_MOTION    = 15.41224028
ECCENTRICITY   = .0003747
INCLINATION    = 42.9989
RA_OF_ASC_NODE = 72.0882
ARG_OF_PERICENTER = 251.2048
MEAN_ANOMALY   = 108.8402

EPHEMERIS_TYPE = 0
CLASSIFICATION_TYPE = U
NORAD_CAT_ID   = 67509
ELEMENT_SET_NO = 999
REV_AT_EPOCH   = 458
BSTAR          = -.17015E-3
MEAN_MOTION_DOT = -.7534E-4
MEAN_MOTION_DDOT = 0

CCSDS_OMM_VERS = 2.0
CREATION_DATE  = 
ORIGINATOR     = 

OBJECT_NAME    = STARLINK-36549
OBJECT_ID      = 2026-012T
CENTER_NAME    = EARTH
REF_FRAME      = TEME
TIME_SYSTEM    = UTC
MEAN_ELEMENT_THEORY = SGP/SGP4

EPOCH          = 2026-02-17T06:00:02.000160
MEAN_MOTION    = 15.31519204
ECCENTRICITY   = .00017191
INCLINATION    = 42.9999
RA_OF_ASC_NODE = 69.4101
ARG_OF_PERICENTER = 255.7713
MEAN_ANOMALY   = 354.6579

EPHEMERIS_TYPE = 0
CLASSIFICATION_TYPE = U
NORAD_CAT_ID   = 67510
ELEMENT_SET_NO = 999
REV_AT_EPOCH   = 573
BSTAR          = -.80676027E-1
MEAN_MOTION_DOT = -.2240221E-1
MEAN_MOTION_DDOT = 0

CCSDS_OMM_VERS = 2.0
CREATION_DATE  = 
ORIGINATOR     = 

OBJECT_NAME    = STARLINK-36540
OBJECT_ID      = 2026-012U
CENTER_NAME    = EARTH
REF_FRAME      = TEME
TIME_SYSTEM    = UTC
MEAN_ELEMENT_THEORY = SGP/SGP4

EPOCH          = 2026-02-16T22:44:49.203744
MEAN_MOTION    = 15.41045741
ECCENTRICITY   = .0003648
INCLINATION    = 42.9989
RA_OF_ASC_NODE = 72.0794
ARG_OF_PERICENTER = 252.1486
MEAN_ANOMALY   = 107.8973

EPHEMERIS_TYPE = 0
CLASSIFICATION_TYPE = U
NORAD_CAT_ID   = 67511
ELEMENT_SET_NO = 999
REV_AT_EPOCH   = 458
BSTAR          = -.20724E-3
MEAN_MOTION_DOT = -.9054E-4
MEAN_MOTION_DDOT = 0

CCSDS_OMM_VERS = 2.0
CREATION_DATE  = 
ORIGINATOR     = 

OBJECT_NAME    = STARLINK-36538
OBJECT_ID      = 2026-012V
CENTER_NAME    = EARTH
REF_FRAME      = TEME
TIME_SYSTEM    = UTC
MEAN_ELEMENT_THEORY = SGP/SGP4

EPOCH          = 2026-02-17T06:00:02.000160
MEAN_MOTION    = 15.27565577
ECCENTRICITY   = .00018986
INCLINATION    = 43.0001
RA_OF_ASC_NODE = 70.0677
ARG_OF_PERICENTER = 286.1929
MEAN_ANOMALY   = 56.1928

EPHEMERIS_TYPE = 0
CLASSIFICATION_TYPE = U
NORAD_CAT_ID   = 67512
ELEMENT_SET_NO = 999
REV_AT_EPOCH   = 578
BSTAR          = .14236157E-3
MEAN_MOTION_DOT = .3656E-4
MEAN_MOTION_DDOT = 0

CCSDS_OMM_VERS = 2.0
CREATION_DATE  = 
ORIGINATOR     = 

OBJECT_NAME    = STARLINK-36531
OBJECT_ID      = 2026-012W
CENTER_NAME    = EARTH
REF_FRAME      = TEME
TIME_SYSTEM    = UTC
MEAN_ELEMENT_THEORY = SGP/SGP4

EPOCH          = 2026-02-17T06:00:02.000160
MEAN_MOTION    = 15.27539046
ECCENTRICITY   = .0000496
INCLINATION    = 43.0003
RA_OF_ASC_NODE = 69.9295
ARG_OF_PERICENTER = 301.6110
MEAN_ANOMALY   = 97.3789

EPHEMERIS_TYPE = 0
CLASSIFICATION_TYPE = U
NORAD_CAT_ID   = 67513
ELEMENT_SET_NO = 999
REV_AT_EPOCH   = 573
BSTAR          = .20416564E-3
MEAN_MOTION_DOT = .5354E-4
MEAN_MOTION_DDOT = 0

CCSDS_OMM_VERS = 2.0
CREATION_DATE  = 
ORIGINATOR     = 

OBJECT_NAME    = STARLINK-36530
OBJECT_ID      = 2026-012X
CENTER_NAME    = EARTH
REF_FRAME      = TEME
TIME_SYSTEM    = UTC
MEAN_ELEMENT_THEORY = SGP/SGP4

EPOCH          = 2026-02-17T06:00:02.000160
MEAN_MOTION    = 15.28389951
ECCENTRICITY   = .00010443
INCLINATION    = 43.0000
RA_OF_ASC_NODE = 69.9229
ARG_OF_PERICENTER = 252.0344
MEAN_ANOMALY   = 149.7007

EPHEMERIS_TYPE = 0
CLASSIFICATION_TYPE = U
NORAD_CAT_ID   = 67514
ELEMENT_SET_NO = 999
REV_AT_EPOCH   = 573
BSTAR          = .20633406E-3
MEAN_MOTION_DOT = .556E-4
MEAN_MOTION_DDOT = 0

CCSDS_OMM_VERS = 2.0
CREATION_DATE  = 
ORIGINATOR     = 

OBJECT_NAME    = STARLINK-36543
OBJECT_ID      = 2026-012Y
CENTER_NAME    = EARTH
REF_FRAME      = TEME
TIME_SYSTEM    = UTC
MEAN_ELEMENT_THEORY = SGP/SGP4

EPOCH          = 2026-02-17T06:00:02.000160
MEAN_MOTION    = 15.28366459
ECCENTRICITY   = .00013778
INCLINATION    = 43.0000
RA_OF_ASC_NODE = 69.9225
ARG_OF_PERICENTER = 265.2845
MEAN_ANOMALY   = 137.3586

EPHEMERIS_TYPE = 0
CLASSIFICATION_TYPE = U
NORAD_CAT_ID   = 67515
ELEMENT_SET_NO = 999
REV_AT_EPOCH   = 573
BSTAR          = .31600353E-3
MEAN_MOTION_DOT = .8654E-4
MEAN_MOTION_DDOT = 0

CCSDS_OMM_VERS = 2.0
CREATION_DATE  = 
ORIGINATOR     = 

OBJECT_NAME    = STARLINK-36537
OBJECT_ID      = 2026-012Z
CENTER_NAME    = EARTH
REF_FRAME      = TEME
TIME_SYSTEM    = UTC
MEAN_ELEMENT_THEORY = SGP/SGP4

EPOCH          = 2026-02-17T06:00:02.000160
MEAN_MOTION    = 15.28383524
ECCENTRICITY   = .00007059
INCLINATION    = 42.9995
RA_OF_ASC_NODE = 69.7495
ARG_OF_PERICENTER = 275.2570
MEAN_ANOMALY   = 197.1857

EPHEMERIS_TYPE = 0
CLASSIFICATION_TYPE = U
NORAD_CAT_ID   = 67516
ELEMENT_SET_NO = 999
REV_AT_EPOCH   = 573
BSTAR          = -.16660505E-3
MEAN_MOTION_DOT = -.496E-4
MEAN_MOTION_DDOT = 0

